OBJECT_NAME,OBJECT_ID,EPOCH,MEAN_MOTION,ECCENTRICITY,INCLINATION,RA_OF_ASC_NODE,ARG_OF_PERICENTER,MEAN_ANOMALY,EPHEMERIS_TYPE,CLASSIFICATION_TYPE,NORAD_CAT_ID,ELEMENT_SET_NO,REV_AT_EPOCH,BSTAR,MEAN_MOTION_DOT,MEAN_MOTION_DDOT
ICEYE-X43,2024-149BZ,2026-06-15T03:50:54.520800,14.99603670,.00081758,97.6783,243.1525,90.8145,269.4016,0,U,60539,999,9981,.2929746E-3,.3549E-4,0
HAWK-10A,2024-149CA,2026-06-15T03:55:45.483168,14.96510964,.00051002,97.6897,242.1098,84.0473,276.1330,0,U,60540,999,9968,.19211226E-3,.2126E-4,0
UMBRA-09,2024-149CB,2026-06-15T03:44:25.242144,15.17992291,.00004176,97.6978,253.3262,292.6648,67.4541,0,U,60541,999,10041,.69935938E-3,.14163E-3,0
QPS-SAR-8 (AMATERU-IV),2024-149CC,2026-06-15T04:44:58.645536,15.04118762,.00049331,97.6669,245.3648,112.0970,248.0780,0,U,60542,999,9997,.27151314E-3,.3703E-4,0
ARCTIC WEATHER SATELLITE,2024-149CD,2026-06-15T03:19:47.390880,14.89803750,.0003621,97.6801,236.6629,107.8421,252.3192,0,U,60543,999,9899,.8960878E-4,.806E-5,0
CAPELLA-15 (ACADIA-5),2024-149CE,2026-06-15T04:14:53.608704,14.92383557,.00048706,97.6778,239.1315,84.3688,275.8086,0,U,60544,999,9955,.27079074E-3,.2717E-4,0
HAWK-10B,2024-149CF,2026-06-15T03:55:32.233728,14.96510329,.0007043,97.6817,241.4668,98.3336,261.8685,0,U,60545,999,9968,.17208967E-3,.1899E-4,0
ICEYE-X39,2024-149CG,2026-06-15T03:24:53.340192,14.99885943,.00050463,97.6766,243.1935,124.0450,236.1253,0,U,60546,999,9981,.25757815E-3,.3135E-4,0
UMBRA-10,2024-149CH,2026-06-15T03:43:46.802784,15.17990785,.0000714,97.6985,253.3533,72.8235,287.3077,0,U,60547,999,10042,.61662685E-3,.12476E-3,0
ICEYE-X33,2024-149CJ,2026-06-15T04:03:27.111456,15.00901628,.00024196,97.7287,245.3249,73.0521,287.0968,0,U,60548,999,9990,.32304901E-3,.4053E-4,0
ICEYE-X40,2024-149CK,2026-06-15T03:57:34.783488,14.97933456,.00066251,97.6816,242.6928,87.9411,272.2570,0,U,60549,999,9977,.20279509E-3,.2333E-4,0
SATELIOT_1,2024-149CL,2026-06-15T03:45:07.643808,14.98059240,.00083981,97.6749,242.0873,86.7678,273.4505,0,U,60550,999,9976,.21206573E-3,.2451E-4,0
BRO-14,2024-149CM,2026-06-15T04:32:05.986752,14.96173389,.00080597,97.6876,242.0026,101.8327,258.3799,0,U,60551,999,9969,.56470008E-4,.579E-5,0
SATELIOT_3,2024-149CN,2026-06-15T04:46:22.739520,14.98046230,.00058957,97.6818,242.9200,90.8957,269.2941,0,U,60552,999,9978,.13780455E-3,.1571E-4,0
BRO-15,2024-149CP,2026-06-15T04:06:48.316320,14.96155961,.00096043,97.6812,241.5889,93.6519,266.5801,0,U,60553,999,9970,.95527381E-4,.1019E-4,0
UM5-RIBAT,2024-149CQ,2026-06-15T03:20:11.880960,15.01066259,.0003611,97.6641,243.9670,64.9424,295.2175,0,U,60554,999,9988,.22533999E-3,.2822E-4,0
UM5-EOSAT,2024-149CR,2026-06-15T02:32:41.276256,15.01515603,.00087436,97.6705,244.8662,120.7212,239.4875,0,U,60555,999,9990,.3225442E-3,.4117E-4,0
LASARSAT,2024-247Q,2026-06-13T14:48:20.082240,15.46168743,.0008375,44.9751,282.2745,311.5212,48.4959,0,U,62391,999,8276,.65515E-3,.32689E-3,0
CROCUBE,2024-247T,2026-06-14T14:05:15.116064,15.48102542,.0008187,44.9722,274.1999,320.7516,39.2780,0,U,62394,999,8294,.65094E-3,.34757E-3,0
TEVEL2-4,2025-052D,2026-06-15T03:51:32.563584,15.34549992,.00048464,97.3913,62.5494,107.3580,252.8193,0,U,63213,999,6980,.44472787E-3,.14823E-3,0
TEVEL2-5,2025-052E,2026-06-14T23:39:00.408960,15.34373171,.00047375,97.3911,62.3224,109.0151,251.1605,0,U,63214,999,6977,.51930003E-3,.1723E-3,0
TEVEL2-6,2025-052F,2026-06-15T06:12:20.343456,15.34344374,.00046506,97.3915,62.5804,108.6304,251.5445,0,U,63215,999,6981,.44547318E-3,.14751E-3,0
TEVEL2-1,2025-052H,2026-06-15T05:19:13.697184,15.33812138,.00046985,97.3885,62.1701,117.4023,242.7699,0,U,63217,999,6979,.43282954E-3,.14089E-3,0
TEVEL2-3,2025-052J,2026-06-15T05:11:36.965184,15.33867104,.00046528,97.3890,62.1864,117.3895,242.7821,0,U,63218,999,6979,.44668464E-3,.14569E-3,0
TEVEL2-2,2025-052K,2026-06-15T05:19:41.771136,15.33820586,.00046707,97.3886,62.1729,117.7961,242.3756,0,U,63219,999,6979,.43998669E-3,.14328E-3,0
TEVEL2-9,2025-052AD,2026-06-15T06:17:35.766528,15.31847587,.00076378,97.3947,61.5923,136.2267,223.9582,0,U,63237,999,6973,.43321473E-3,.13263E-3,0
TEVEL2-7,2025-052AE,2026-06-15T05:41:53.334240,15.31552974,.00077324,97.3951,61.4847,136.5558,223.6294,0,U,63238,999,6972,.42470935E-3,.12882E-3,0
TEVEL2-8,2025-052AF,2026-06-15T05:53:44.567808,15.31537098,.00077476,97.3952,61.4697,137.3635,222.8209,0,U,63239,999,6972,.42899949E-3,.13007E-3,0
FORESAIL-1 PRIME,2025-276DS,2026-06-15T03:38:26.750400,15.18685264,.00039386,97.4203,239.4592,109.0976,251.0685,0,U,66778,999,3009,.21912264E-3,.4477E-4,0
